BEIDOU 3 (C01)          
1 36287U 10001A   20216.05968258 -.00000299  00000-0  00000+0 0  9992
2 36287   1.4780  29.2301 0005690 112.4480 332.3360  1.00273344 38673
BEIDOU 5 (C06)          
1 36828U 10036A   20216.34822166 -.00000144  00000-0  10000-3 0  9994
2 36828  54.1685 182.5692 0099608 235.2848 135.0633  1.00291003 36720
BEIDOU 6 (C04)          
1 37210U 10057A   20216.26785792 -.00000131  00000-0  00000+0 0  9998
2 37210   0.8905  51.5627 0005150 109.8722  47.3026  1.00271309 35781
BEIDOU 7 (C07)          
1 37256U 10068A   20216.12343021 -.00000208  00000-0  00000+0 0  9995
2 37256  51.4015 297.7825 0081725 213.0106 322.3795  1.00299084 35290
BEIDOU 8 (C08)          
1 37384U 11013A   20216.26680155 -.00000181  00000-0  10000-3 0  9990
2 37384  59.3343  61.1209 0049556 201.3565 262.8610  1.00293066 34182
BEIDOU 9 (C09)          
1 37763U 11038A   20216.38348095 -.00000084  00000-0  10000-3 0  9997
2 37763  54.4532 184.9471 0073929 225.7284 134.8684  1.00284544 33159
BEIDOU 10 (C10)         
1 37948U 11073A   20215.69424509 -.00000150  00000-0  10000-3 0  9993
2 37948  51.4983 297.3834 0070196 213.4326 146.1768  1.00285575 31902
BEIDOU 11 (C05)         
1 38091U 12008A   20215.94146737  .00000036  00000-0  00000-0 0  9992
2 38091   1.5745  68.1545 0003090 301.0294 340.5268  1.00277080 30977
BEIDOU 12 (C11)         
1 38250U 12018A   20216.14578666 -.00000103  00000-0  10000-3 0  9993
2 38250  56.7392  16.1268 0020614 239.0293 123.7240  1.86234383 56364
BEIDOU 13 (C12)         
1 38251U 12018B   20216.07878947 -.00000104  00000-0  00000+0 0  9997
2 38251  56.6656  15.4972 0011644 238.5939 124.5719  1.86232657 56367
BEIDOU 15 (C14)         
1 38775U 12050B   20216.48120532 -.00000041  00000-0  00000+0 0  9999
2 38775  55.0783 134.7092 0015953 318.4844 150.8998  1.86232393 53747
BEIDOU 16 (C02)         
1 38953U 12059A   20216.53022193 -.00000194  00000-0  00000+0 0  9995
2 38953   1.2161  84.0567 0006592 274.7257 228.6154  1.00274574 28555
BEIDOU 17 (C31)         
1 40549U 15019A   20215.51980660 -.00000202  00000-0  00000-0 0  9998
2 40549  52.9886 320.6730 0040010 188.7846  86.6709  1.00277802 19575
BEIDOU 18 (C57)         
1 40748U 15037A   20216.21899813 -.00000106  00000-0  00000+0 0  9998
2 40748  55.9358  14.7719 0003186  43.1248 323.9234  1.86232060 34190
BEIDOU 19 (C58)         
1 40749U 15037B   20216.22846813 -.00000106  00000-0  00000+0 0  9992
2 40749  55.9360  14.7577 0002665 331.3330 179.1161  1.86232282 34186
BEIDOU 20 (C18)         
1 40938U 15053A   20215.38359019 -.00000111  00000-0  00000-0 0  9990
2 40938  52.5485 283.7073 0051848 189.7983  71.3956  1.00262381 17851
BEIDOU IGSO-6 (C13)     
1 41434U 16021A   20215.93386804 -.00000138  00000-0  00000-0 0  9990
2 41434  57.1007  60.0147 0039836 203.6799 118.1008  1.00289745 15989
BEIDOU-2 G7 (C03)       
1 41586U 16037A   20215.76376934 -.00000373  00000-0  00000-0 0  9990
2 41586   1.5861  65.6473 0007963  10.7885 260.8198  1.00268541 15289
BEIDOU-3 M1 (C19)       
1 43001U 17069A   20216.46752876 -.00000041  00000-0  00000+0 0  9992
2 43001  55.2318 134.6198 0011033 292.5009 324.5094  1.86231922 18674
BEIDOU-3 M2 (C20)       
1 43002U 17069B   20216.16588716 -.00000044  00000-0  00000+0 0  9993
2 43002  55.2325 134.6647 0010066 312.9938 145.6234  1.86231486 18667
BEIDOU-3 M3 (C27)       
1 43107U 18003A   20215.81405109 -.00000106  00000-0  00000-0 0  9993
2 43107  55.3688  16.0090 0004759  51.2565 337.3399  1.86232638 17427
BEIDOU-3 M4 (C28)       
1 43108U 18003B   20215.74576506 -.00000105  00000-0  00000-0 0  9995
2 43108  55.3630  16.0031 0002740 222.4078 165.5471  1.86232658 17423
BEIDOU-3 M5 (C21)       
1 43207U 18018A   20215.07771071 -.00000054  00000-0  00000-0 0  9994
2 43207  55.1895 134.8027 0007334 334.1335  25.8211  1.86231793 16797
BEIDOU-3 M6 (C22)       
1 43208U 18018B   20215.14445220 -.00000053  00000-0  00000-0 0  9996
2 43208  55.1890 134.8053 0008771 304.9268  54.9825  1.86231687 16794
BEIDOU-3 M7 (C29)       
1 43245U 18029A   20215.41249935 -.00000106  00000-0  00000-0 0  9993
2 43245  55.3134  13.8308 0000783  99.4512 289.9554  1.86232802 15956
BEIDOU-3 M8 (C30)       
1 43246U 18029B   20215.87411563 -.00000107  00000-0  10000-3 0  9997
2 43246  55.3101  13.8465 0003320 352.8620  31.9229  1.86232671 15959
BEIDOU IGSO-7 (C16)     
1 43539U 18057A   20216.13491963 -.00000134  00000-0  00000+0 0  9990
2 43539  55.0481 181.8247 0029770 215.2351  74.5249  1.00253203  7659
BEIDOU-3 M9 (C23)       
1 43581U 18062A   20215.66403597  .00000041  00000-0  00000-0 0  9993
2 43581  54.5455 255.5475 0005900 255.3520 198.0964  1.86231912 13699
BEIDOU-3 M10 (C24)      
1 43582U 18062B   20215.92193928  .00000039  00000-0  00000+0 0  9993
2 43582  54.5451 255.5278 0004224 318.1885  39.1282  1.86232155 13695
BEIDOU-3 M11 (C25)      
1 43602U 18067A   20215.72167406  .00000043  00000-0  00000-0 0  9997
2 43602  54.6159 254.0912 0005973 341.5538 284.4038  1.86231760 13189
BEIDOU-3 M12 (C26)      
1 43603U 18067B   20215.55732286  .00000044  00000-0  00000-0 0  9994
2 43603  54.6131 254.0631 0003702 322.7388 103.5557  1.86231681 13202
BEIDOU-3 M13 (C32)      
1 43622U 18072A   20216.34175450 -.00000043  00000-0  00000+0 0  9992
2 43622  55.1561 134.3411 0007296 292.7781 329.8648  1.86231965 12722
BEIDOU-3 M14 (C33)      
1 43623U 18072B   20215.66452306 -.00000049  00000-0  00000-0 0  9992
2 43623  55.1561 134.3539 0006267 314.4973 304.3141  1.86232040 12716
BEIDOU-3 M15 (C34)      
1 43647U 18078A   20216.21071120 -.00000108  00000-0  10000-3 0  9997
2 43647  55.2055  14.0223 0005979 355.8854 164.2984  1.86232917 12240
BEIDOU-3 M16 (C35)      
1 43648U 18078B   20213.76479167 -.00000100  00000-0  10000-3 0  9990
2 43648  55.1990  14.1133 0003902  12.3062 217.0069  1.86232043 12206
BEIDOU-3 G1 (C59)       
1 43683U 18085A   20216.45736924 -.00000297  00000-0  00000+0 0  9995
2 43683   1.6685 253.3774 0003328 339.9761  23.7396  1.00273781  6574
BEIDOU-3 M17 (C36)      
1 43706U 18093A   20216.18858044  .00000036  00000-0  00000+0 0  9998
2 43706  54.6238 255.3649 0011575 260.6443  49.4708  1.86231859 11599
BEIDOU-3 M18 (C37)      
1 43707U 18093B   20215.81363652  .00000040  00000-0  00000-0 0  9990
2 43707  54.6253 255.3680 0009781 279.2902 230.0036  1.86232115 11592
BEIDOU-3 IGSO-1 (C38)   
1 44204U 19023A   20214.36976694 -.00000211  00000-0  10000-3 0  9997
2 44204  55.5584  60.4178 0017437 178.8589 317.8566  1.00280206  4843
BEIDOU-2 G8             
1 44231U 19027A   20215.74040133 -.00000265  00000-0  00000-0 0  9999
2 44231   0.8816 298.5133 0007191 266.7266 157.5846  1.00268780  4577
BEIDOU-3 IGSO-2 (C39)   
1 44337U 19035A   20216.13491963 -.00000136  00000-0  00000+0 0  9996
2 44337  55.0736 177.8793 0014240 190.3788 100.4668  1.00276234  4192
BEIDOU-3 M23 (C45)      
1 44542U 19061A   20216.12705859  .00000037  00000-0  10000-3 0  9998
2 44542  54.8466 255.3749 0008474 306.2046   7.2023  1.86231332  5854
BEIDOU-3 M24 (C46)      
1 44543U 19061B   20216.53580369  .00000033  00000-0  10000-3 0  9997
2 44543  54.8454 255.3301 0006312 290.5146 207.3850  1.86231741  5878
BEIDOU-3 IGSO-3         
1 44709U 19073A   20215.38324590 -.00000178  00000-0  10000-3 0  9999
2 44709  58.3276 303.4357 0025053 188.0892  65.1387  1.00269678  2947
BEIDOU-3 M21            
1 44793U 19078A   20216.54120079 -.00000109  00000-0  10000-3 0  9996
2 44793  55.0555  14.1141 0005803   3.9330 332.6444  1.86232553  4724
BEIDOU-3 M22            
1 44794U 19078B   20215.82916361 -.00000108  00000-0  10000-3 0  9993
2 44794  55.0313  14.1457 0003739   1.0986 128.4614  1.86232985  4717
BEIDOU-3 M19            
1 44864U 19090A   20215.73575465 -.00000049  00000-0  00000-0 0  9991
2 44864  55.0895 134.6084 0016009 266.8391 354.7737  1.86232021  4293
BEIDOU-3 M20            
1 44865U 19090B   20216.47024584 -.00000041  00000-0  10000-3 0  9991
2 44865  55.0925 134.6132 0015227 282.5339 201.4634  1.86232003  4294
BEIDOU-3 G2             
1 45344U 20017A   20215.80465921 -.00000155  00000-0  00000-0 0  9997
2 45344   2.8873 328.8991 0002862 150.4618 202.1873  1.00271208  1761
BEIDOU-3 G3             
1 45807U 20040A   20216.02077759 -.00000368  00000-0  00000+0 0  9995
2 45807   3.0135 298.7723 0005951 342.9658 148.2847  1.00268846   585
